STARLINK-1852           
1 47139U 20088T   21247.95902284  .00002003  00000-0  15330-3 0  9997
2 47139  53.0548 139.0773 0002211  81.2597 278.8643 15.06412194 43861
STARLINK-1853           
1 47140U 20088U   21247.70368904  .00113514  00000-0  86037-3 0  9999
2 47140  53.0528 121.5836 0001352  59.4102 300.7049 15.71547960 43790
STARLINK-1854           
1 47141U 20088V   21247.17440647 -.00000259  00000-0  15131-5 0  9997
2 47141  53.0542 127.5379 0001739  94.9540 265.1647 15.06395668 43662
STARLINK-1855           
1 47142U 20088W   21248.11838588  .01082828  58707-3  21917-2 0  9996
2 47142  53.0526 100.3092 0006499 306.1420  53.9041 15.99057398 44411
STARLINK-1856           
1 47143U 20088X   21247.68674685  .00001089  00000-0  92008-4 0  9994
2 47143  53.0542 125.2917 0001726  69.8959 290.2216 15.06403772 43733
STARLINK-1857           
1 47144U 20088Y   21248.00466469  .00000131  00000-0  27676-4 0  9997
2 47144  53.0546 113.8685 0001947  81.8074 278.3136 15.06397971 44170
STARLINK-1858           
1 47145U 20088Z   21247.66555346 -.00000482  00000-0 -13304-4 0  9996
2 47145  53.0534 115.3896 0006843   1.4557 358.6451 15.06395942 43877
STARLINK-1859           
1 47146U 20088AA  21247.96041933  .00001485  00000-0  11857-3 0  9994
2 47146  53.0554 144.0702 0002012  71.8575 288.2633 15.06407505 43745
STARLINK-1860           
1 47147U 20088AB  21247.69688399 -.00000405  00000-0 -82622-5 0  9991
2 47147  53.0566 135.2654 0001982  64.3676 295.7518 15.06405001 43600
STARLINK-1861           
1 47148U 20088AC  21247.40663153  .00001072  00000-0  90848-4 0  9999
2 47148  53.0559 126.5490 0001858  73.3863 286.7330 15.06402526 43694
STARLINK-1862           
1 47149U 20088AD  21247.70058405  .00001291  00000-0  10553-3 0  9998
2 47149  53.0557 135.2469 0002037  73.7494 286.3719 15.06405702 44338
STARLINK-1863           
1 47150U 20088AE  21247.95952713  .00001550  00000-0  12291-3 0  9991
2 47150  53.0555 124.0863 0001960  79.0543 281.0667 15.06405350 44030
STARLINK-1864           
1 47151U 20088AF  21247.69322067  .00001192  00000-0  98887-4 0  9994
2 47151  53.0549 135.2697 0001890  76.0896 284.0303 15.06401431 43599
STARLINK-1866           
1 47152U 20088AG  21247.94386789  .00001417  00000-0  11401-3 0  9990
2 47152  53.0544 134.1585 0002162  71.8697 288.2527 15.06401089 43889
STARLINK-1867           
1 47153U 20088AH  21246.98962909 -.00001096  00000-0 -54653-4 0  9990
2 47153  53.0559 143.4382 0002039  62.4509 297.6687 15.06392247 43421
STARLINK-1868           
1 47154U 20088AJ  21247.71625012  .00001134  00000-0  95029-4 0  9997
2 47154  53.0553 125.1831 0001993  74.8445 285.2764 15.06404582 43746
STARLINK-1869           
1 47155U 20088AK  21248.01662842  .00001197  00000-0  99262-4 0  9996
2 47155  53.0531 143.8257 0001857  69.3651 290.7537 15.06402621 43751
STARLINK-1870           
1 47156U 20088AL  21247.54027355 -.00000823  00000-0 -13670-4 0  9994
2 47156  53.0554  85.3258 0001722  53.2474 306.8685 15.33576368 44297
STARLINK-1871           
1 47157U 20088AM  21247.39096079  .00001234  00000-0  10173-3 0  9996
2 47157  53.0550 136.6403 0002044  68.5338 291.5869 15.06404338 43551
STARLINK-1873           
1 47158U 20088AN  21247.67937590  .00000161  00000-0  29741-4 0  9990
2 47158  53.0546 125.3210 0002051  77.4220 282.6998 15.06405598 43738
STARLINK-1874           
1 47159U 20088AP  21247.67477108  .00001274  00000-0  10440-3 0  9996
2 47159  53.0550 135.3700 0001794  86.2474 273.8720 15.06408336 43593
STARLINK-1875           
1 47160U 20088AQ  21248.01003450  .00005146  00000-0  12752-3 0  9992
2 47160  53.0560 116.3700 0001306  78.8999 281.2153 15.42185116 44146
STARLINK-1876           
1 47161U 20088AR  21247.91161295  .00002642  00000-0  19615-3 0  9996
2 47161  53.0536 124.2924 0002016  77.9298 282.1916 15.06406312 44025
STARLINK-1877           
1 47162U 20088AS  21247.97332393 -.00000520  00000-0 -15997-4 0  9997
2 47162  53.0548 134.0045 0001977  68.4393 291.6807 15.06408362 43893
STARLINK-1878           
1 47163U 20088AT  21248.00557990 -.00000366  00000-0 -56362-5 0  9995
2 47163  53.0543 144.0016 0001683  83.0907 277.0273 15.06399253 43754
STARLINK-1879           
1 47164U 20088AU  21247.99361969  .00001559  00000-0  12351-3 0  9993
2 47164  53.0550 113.9126 0001890  89.5280 270.5925 15.06406116 44171
STARLINK-1880           
1 47165U 20088AV  21247.40200978 -.00000408  00000-0 -84623-5 0  9999
2 47165  53.0538 136.5859 0001946  62.9469 297.1719 15.06397023 43551
STARLINK-1881           
1 47166U 20088AW  21247.99562412  .00011374  00000-0  41823-3 0  9993
2 47166  53.0499 105.7023 0002628  90.9301 269.1998 15.28365618 44292
STARLINK-1884           
1 47167U 20088AX  21247.71900359 -.00000523  00000-0 -16066-4 0  9998
2 47167  53.0549 135.1703 0006672 147.5900 212.5500 15.06399559 43600
STARLINK-1885           
1 47168U 20088AY  21247.38358151 -.00000702  00000-0 -28212-4 0  9994
2 47168  53.0539 136.6700 0002242  64.3409 295.7811 15.06395233 43559
STARLINK-1886           
1 47169U 20088AZ  21247.96645104  .00381701  00000-0  56986-2 0  9992
2 47169  53.0692 102.4764 0006479 267.2615  92.7653 15.53176137 44394
STARLINK-1887           
1 47170U 20088BA  21247.96963956 -.00000312  00000-0 -20033-5 0  9997
2 47170  53.0556 134.0391 0001904  59.7509 300.3668 15.06409885 43936
STARLINK-1888           
1 47171U 20088BB  21247.92264392  .00001132  00000-0  94867-4 0  9996
2 47171  53.0554 124.2424 0001933  80.2178 279.9029 15.06409722 44063
STARLINK-1889           
1 47172U 20088BC  21247.92041805  .00179221  00000-0  74285-2 0  9994
2 47172  53.0559 138.4513 0002190 102.1661 257.9581 15.22667352 43861
STARLINK-1890           
1 47173U 20088BD  21247.98344108 -.00000530  00000-0 -16666-4 0  9992
2 47173  53.0545 133.9725 0002034  67.1709 292.9494 15.06401446 43934
STARLINK-1891           
1 47174U 20088BE  21247.72636995  .00000636  00000-0  61579-4 0  9991
2 47174  53.0547 135.1301 0001885  69.0485 291.0706 15.06408414 43608
STARLINK-1895           
1 47175U 20088BF  21247.72452551 -.00000572  00000-0 -19480-4 0  9991
2 47175  53.0549 115.1186 0001556  71.6207 288.4951 15.06394418 43886
STARLINK-1907           
1 47177U 20088BH  21247.70888067  .00001502  00000-0  11973-3 0  9996
2 47177  53.0548 125.2129 0001727  88.6537 271.4650 15.06405708 43748
STARLINK-1912           
1 47178U 20088BJ  21247.68951462 -.00000301  00000-0 -13031-5 0  9991
2 47178  53.0544 135.2802 0001712  69.5438 290.5734 15.06407616 43594
STARLINK-1913           
1 47179U 20088BK  21247.41214703 -.00000497  00000-0 -14487-4 0  9994
2 47179  53.0536 146.5413 0001786  69.5359 290.5822 15.06406259 43413
STARLINK-1914           
1 47180U 20088BL  21248.02612455  .00272711  00000-0  55923-2 0  9996
2 47180  53.0512 137.6591 0001724 102.8878 257.2321 15.44526528 43841
STARLINK-1927           
1 47181U 20088BM  21247.98254494 -.00000452  00000-0 -11420-4 0  9995
2 47181  53.0547 113.9678 0002276  75.2158 284.9083 15.06399794 44170
LUCAS (JDRS-1)          
1 47202U 20089A   21248.10540955 -.00000241  00000-0  00000+0 0  9997
2 47202   0.0135 144.0601 0001706 354.0367 335.0477  1.00274161  2894
FALCON EYE 2            
1 47226U 20090A   21248.07765694  .00000199  00000-0  29645-4 0  9992
2 47226  97.8573 321.9221 0001355  85.6770 274.4588 14.84906553 41119
GONETS-M 20             
1 47227U 20091A   21248.17673699  .00000017  00000-0  51350-4 0  9995
2 47227  82.5057 307.6929 0021159  35.4581 324.7900 12.42886359 34304
GONETS-M 21             
1 47228U 20091B   21248.15390311  .00000049  00000-0  28545-3 0  9995
2 47228  82.4984 307.5026 0015576  48.4180 311.8228 12.42865896 34296
GONETS-M 22             
1 47229U 20091C   21248.12566312  .00000041  00000-0  22235-3 0  9991
2 47229  82.5044 307.6030 0022070  28.7373 331.4922 12.42876743 34284
COSMOS 2548             
1 47230U 20091D   21248.21032225  .00000035  00000-0  17999-3 0  9998
2 47230  82.4998 307.5147 0015746  47.1136 313.1263 12.42880853 34300
GAOFEN 14               
1 47231U 20092A   21248.21030226  .00001374  00000-0  56857-4 0  9993
2 47231  97.4153 324.0213 0004365  77.2119 359.9022 15.25633851 41620
GECAM-A                 
1 47234U 20094A   21248.04587147  .00000430  00000-0  28930-4 0  9991
2 47234  28.9980  99.4036 0012713 185.2595 174.7870 14.90767630 40166
GECAM-B                 
1 47235U 20094B   21248.03003891  .00000475  00000-0  33289-4 0  9992
2 47235  28.9990  99.2686 0013044 184.6031 175.4444 14.90848556 40165
SXM-7                   
1 47240U 20096A   21247.99254928 -.00000028  00000-0  00000+0 0  9998
2 47240   0.0145 134.2584 0001243 184.0796 268.0065  1.00272697  2824
IPM 2 & BREEZE-M R/B    
1 47242U 20097A   21247.14273081 -.00000121  00000-0  00000-0 0  9994
2 47242   0.6505 102.3002 0086490 222.7530  34.3879  0.95298387  2617
STRIX-ALPHA             
1 47253U 20098A   21248.04657407  .00002393  00000-0  10815-3 0  9995
2 47253  97.3494 139.8459 0015256  92.1408  19.3742 15.21811013 40071
CMS-01                  
1 47256U 20099A   21248.00202944 -.00000170  00000-0  00000+0 0  9990
2 47256   0.0119 196.4809 0005816  52.1029 179.5178  1.00269459  2683
ONEWEB-0102             
1 47258U 20100A   21247.54285105  .00000402  00000-0  10812-2 0  9995
2 47258  87.8949 337.9725 0001615 105.5123 254.6184 13.12444954 35622
ONEWEB-0109             
1 47259U 20100B   21247.55344111  .00000585  00000-0  15912-2 0  9998
2 47259  87.8923 337.8079 0001779 113.9652 246.1663 13.12442491 35450
ONEWEB-0110             
1 47260U 20100C   21247.65083635 -.00000222  00000-0 -65374-3 0  9990
2 47260  87.8970 337.8760 0001625 108.7238 251.4067 13.12438704 35632
ONEWEB-0111             
1 47261U 20100D   21247.53011397 -.00000101  00000-0 -31636-3 0  9994
2 47261  87.8973 337.9268 0001602 100.6060 259.5249 13.12441510 35459
